SKYSAT-A                
1 39418U 13066C   26192.92535079  .00001480  00000+0  86826-4 0  9997
2 39418  97.3805 241.5341 0020184 225.2191 134.7400 15.13105178692228
SKYSAT-B                
1 40072U 14037D   26193.34102810  .00000644  00000+0  76703-4 0  9998
2 40072  98.3853 153.7429 0005346 181.7675 178.3522 14.88088006649702
SKYSAT-C1               
1 41601U 16040C   26192.63835800  .00005514  00000+0  15589-3 0  9991
2 41601  96.9557 223.0369 0000645 355.4804   4.6435 15.36708815561620
SKYSAT-C4               
1 41771U 16058B   26193.52657356  .00011565  00000+0  21243-3 0  9992
2 41771  96.9166 214.2493 0003375 121.7032 238.4550 15.49377309549393
SKYSAT-C5               
1 41772U 16058C   26193.34054541  .00004347  00000+0  13571-3 0  9995
2 41772  97.0459 232.8553 0002214 168.5787 191.5507 15.33693860547600
SKYSAT-C2               
1 41773U 16058D   26193.04299966  .00007516  00000+0  17453-3 0  9999
2 41773  97.0160 214.2092 0001917   6.6282 353.4991 15.42631426548880
SKYSAT-C3               
1 41774U 16058E   26193.52915096  .00015589  00000+0  24574-3 0  9993
2 41774  96.8992 223.4174 0002370 135.3736 224.7710 15.53621990550049
SKYSAT-C11              
1 42987U 17068A   26193.41806616  .00017889  00000+0  22940-3 0  9997
2 42987  97.4366 343.3758 0000966 162.5128 197.6162 15.59216138487176
SKYSAT-C10              
1 42988U 17068B   26193.19683330  .00006339  00000+0  18867-3 0  9990
2 42988  97.4527 330.2987 0001407 109.1454 250.9941 15.35077079486197
SKYSAT-C9               
1 42989U 17068C   26192.18672867  .00008274  00000+0  19496-3 0  9991
2 42989  97.4444 330.4450 0008945  57.4451 302.7659 15.42149851486456
SKYSAT-C8               
1 42990U 17068D   26192.86941280  .00006258  00000+0  17273-3 0  9997
2 42990  97.4545 329.8628 0001248 101.2013 258.9372 15.37449279486107
SKYSAT-C7               
1 42991U 17068E   26193.18922727  .00006063  00000+0  16760-3 0  9993
2 42991  97.4554 331.1783 0005961  31.4631 328.6968 15.37404124486210
SKYSAT-C6               
1 42992U 17068F   26192.86656048  .00005678  00000+0  17431-3 0  9995
2 42992  97.4592 330.7193 0005162  97.3545 262.8285 15.34133330486105
SKYSAT-C12              
1 43797U 18099AR  26193.54204117  .00012415  00000+0  22508-3 0  9994
2 43797  96.9256 215.7709 0005529  76.0544 284.1323 15.49725608425783
